[{"OBJECT_NAME":"QB50P2","OBJECT_ID":"2014-033Y","EPOCH":"2026-03-03T04:25:53.499072","MEAN_MOTION":15.13514939,"ECCENTRICITY":0.0007803,"INCLINATION":98.0718,"RA_OF_ASC_NODE":52.6122,"ARG_OF_PERICENTER":162.6279,"MEAN_ANOMALY":197.5219,"EPHEMERIS_TYPE":0,"CLASSIFICATION_TYPE":"U","NORAD_CAT_ID":40032,"ELEMENT_SET_NO":999,"REV_AT_EPOCH":63662,"BSTAR":0.00062896,"MEAN_MOTION_DOT":0.00011208,"MEAN_MOTION_DDOT":0},{"OBJECT_NAME":"PERSEUS-M1","OBJECT_ID":"2014-033AF","EPOCH":"2026-03-02T18:44:59.072064","MEAN_MOTION":14.95207636,"ECCENTRICITY":0.00100702,"INCLINATION":97.9548,"RA_OF_ASC_NODE":4.2636,"ARG_OF_PERICENTER":294.5474,"MEAN_ANOMALY":65.4696,"EPHEMERIS_TYPE":0,"CLASSIFICATION_TYPE":"U","NORAD_CAT_ID":40039,"ELEMENT_SET_NO":999,"REV_AT_EPOCH":63473,"BSTAR":0.00032126189,"MEAN_MOTION_DOT":3.474e-5,"MEAN_MOTION_DDOT":0},{"OBJECT_NAME":"POLYITAN-1","OBJECT_ID":"2014-033AJ","EPOCH":"2026-03-03T00:01:01.068384","MEAN_MOTION":15.29195498,"ECCENTRICITY":0.0008787,"INCLINATION":98.1046,"RA_OF_ASC_NODE":78.4877,"ARG_OF_PERICENTER":146.9517,"MEAN_ANOMALY":213.2272,"EPHEMERIS_TYPE":0,"CLASSIFICATION_TYPE":"U","NORAD_CAT_ID":40042,"ELEMENT_SET_NO":999,"REV_AT_EPOCH":63734,"BSTAR":0.00085298,"MEAN_MOTION_DOT":0.0002416,"MEAN_MOTION_DDOT":0},{"OBJECT_NAME":"TIGRISAT","OBJECT_ID":"2014-033AK","EPOCH":"2026-03-02T15:33:35.641152","MEAN_MOTION":14.84681965,"ECCENTRICITY":0.0050753,"INCLINATION":97.7655,"RA_OF_ASC_NODE":214.2268,"ARG_OF_PERICENTER":65.0259,"MEAN_ANOMALY":295.6215,"EPHEMERIS_TYPE":0,"CLASSIFICATION_TYPE":"U","NORAD_CAT_ID":40043,"ELEMENT_SET_NO":999,"REV_AT_EPOCH":62981,"BSTAR":0.00036831,"MEAN_MOTION_DOT":3.135e-5,"MEAN_MOTION_DDOT":0},{"OBJECT_NAME":"AISAT","OBJECT_ID":"2014-034B","EPOCH":"2026-03-03T04:16:30.175392","MEAN_MOTION":15.06499403,"ECCENTRICITY":0.0008218,"INCLINATION":98.2467,"RA_OF_ASC_NODE":327.0181,"ARG_OF_PERICENTER":210.208,"MEAN_ANOMALY":149.8672,"EPHEMERIS_TYPE":0,"CLASSIFICATION_TYPE":"U","NORAD_CAT_ID":40054,"ELEMENT_SET_NO":999,"REV_AT_EPOCH":63123,"BSTAR":0.00090305,"MEAN_MOTION_DOT":0.00013296,"MEAN_MOTION_DDOT":0},{"OBJECT_NAME":"CANX-4","OBJECT_ID":"2014-034C","EPOCH":"2026-03-03T03:47:01.245984","MEAN_MOTION":14.81040878,"ECCENTRICITY":0.0012802,"INCLINATION":98.3288,"RA_OF_ASC_NODE":293.4943,"ARG_OF_PERICENTER":357.7943,"MEAN_ANOMALY":2.3209,"EPHEMERIS_TYPE":0,"CLASSIFICATION_TYPE":"U","NORAD_CAT_ID":40055,"ELEMENT_SET_NO":999,"REV_AT_EPOCH":62883,"BSTAR":0.00018175,"MEAN_MOTION_DOT":1.353e-5,"MEAN_MOTION_DDOT":0},{"OBJECT_NAME":"CANX-5","OBJECT_ID":"2014-034D","EPOCH":"2026-03-03T03:46:30.713952","MEAN_MOTION":14.81057536,"ECCENTRICITY":0.0012795,"INCLINATION":98.3291,"RA_OF_ASC_NODE":293.5312,"ARG_OF_PERICENTER":358.0287,"MEAN_ANOMALY":2.0872,"EPHEMERIS_TYPE":0,"CLASSIFICATION_TYPE":"U","NORAD_CAT_ID":40056,"ELEMENT_SET_NO":999,"REV_AT_EPOCH":61964,"BSTAR":0.00018149,"MEAN_MOTION_DOT":1.352e-5,"MEAN_MOTION_DDOT":0},{"OBJECT_NAME":"VELOX-I","OBJECT_ID":"2014-034E","EPOCH":"2026-03-03T03:22:51.396960","MEAN_MOTION":14.96765067,"ECCENTRICITY":0.0005524,"INCLINATION":98.2657,"RA_OF_ASC_NODE":321.1693,"ARG_OF_PERICENTER":263.1743,"MEAN_ANOMALY":96.8849,"EPHEMERIS_TYPE":0,"CLASSIFICATION_TYPE":"U","NORAD_CAT_ID":40057,"ELEMENT_SET_NO":999,"REV_AT_EPOCH":63073,"BSTAR":0.00059045,"MEAN_MOTION_DOT":6.694e-5,"MEAN_MOTION_DDOT":0},{"OBJECT_NAME":"GONETS-M 10","OBJECT_ID":"2014-036C","EPOCH":"2026-03-03T05:19:07.804704","MEAN_MOTION":12.42941947,"ECCENTRICITY":0.0022505,"INCLINATION":82.5146,"RA_OF_ASC_NODE":13.4836,"ARG_OF_PERICENTER":15.9138,"MEAN_ANOMALY":344.2644,"EPHEMERIS_TYPE":0,"CLASSIFICATION_TYPE":"U","NORAD_CAT_ID":40063,"ELEMENT_SET_NO":999,"REV_AT_EPOCH":52908,"BSTAR":-0.00064621,"MEAN_MOTION_DOT":-8.0e-7,"MEAN_MOTION_DDOT":0},{"OBJECT_NAME":"METEOR-M 2","OBJECT_ID":"2014-037A","EPOCH":"2026-03-03T04:58:33.413952","MEAN_MOTION":14.21426488,"ECCENTRICITY":0.0005776,"INCLINATION":98.5008,"RA_OF_ASC_NODE":41.7575,"ARG_OF_PERICENTER":356.8575,"MEAN_ANOMALY":3.2566,"EPHEMERIS_TYPE":0,"CLASSIFICATION_TYPE":"U","NORAD_CAT_ID":40069,"ELEMENT_SET_NO":999,"REV_AT_EPOCH":60426,"BSTAR":0.00026412,"MEAN_MOTION_DOT":5.35e-6,"MEAN_MOTION_DDOT":0},{"OBJECT_NAME":"DX1","OBJECT_ID":"2014-037C","EPOCH":"2026-03-03T04:13:14.290176","MEAN_MOTION":14.89588293,"ECCENTRICITY":0.0005619,"INCLINATION":98.3754,"RA_OF_ASC_NODE":17.553,"ARG_OF_PERICENTER":256.7808,"MEAN_ANOMALY":103.2781,"EPHEMERIS_TYPE":0,"CLASSIFICATION_TYPE":"U","NORAD_CAT_ID":40071,"ELEMENT_SET_NO":999,"REV_AT_EPOCH":63032,"BSTAR":0.00036235,"MEAN_MOTION_DOT":3.398e-5,"MEAN_MOTION_DDOT":0},{"OBJECT_NAME":"UKUBE-1","OBJECT_ID":"2014-037F","EPOCH":"2026-03-03T04:43:23.368800","MEAN_MOTION":15.11612544,"ECCENTRICITY":0.0002605,"INCLINATION":98.4218,"RA_OF_ASC_NODE":54.4986,"ARG_OF_PERICENTER":119.1945,"MEAN_ANOMALY":240.9543,"EPHEMERIS_TYPE":0,"CLASSIFICATION_TYPE":"U","NORAD_CAT_ID":40074,"ELEMENT_SET_NO":999,"REV_AT_EPOCH":63253,"BSTAR":0.00075114,"MEAN_MOTION_DOT":0.00012698,"MEAN_MOTION_DDOT":0},{"OBJECT_NAME":"GAOFEN-2","OBJECT_ID":"2014-049A","EPOCH":"2026-03-03T05:25:09.907968","MEAN_MOTION":14.80759815,"ECCENTRICITY":0.0006567,"INCLINATION":98.0245,"RA_OF_ASC_NODE":126.4859,"ARG_OF_PERICENTER":207.5844,"MEAN_ANOMALY":152.502,"EPHEMERIS_TYPE":0,"CLASSIFICATION_TYPE":"U","NORAD_CAT_ID":40118,"ELEMENT_SET_NO":999,"REV_AT_EPOCH":62355,"BSTAR":0.00011138,"MEAN_MOTION_DOT":8.04e-6,"MEAN_MOTION_DDOT":0},{"OBJECT_NAME":"BRITE-PL2 (HEWELIUSZ)","OBJECT_ID":"2014-049B","EPOCH":"2026-03-02T20:12:56.392704","MEAN_MOTION":14.94135381,"ECCENTRICITY":0.0015452,"INCLINATION":97.8979,"RA_OF_ASC_NODE":173.1336,"ARG_OF_PERICENTER":102.4479,"MEAN_ANOMALY":257.847,"EPHEMERIS_TYPE":0,"CLASSIFICATION_TYPE":"U","NORAD_CAT_ID":40119,"ELEMENT_SET_NO":999,"REV_AT_EPOCH":62556,"BSTAR":0.000294,"MEAN_MOTION_DOT":3.093e-5,"MEAN_MOTION_DDOT":0},{"OBJECT_NAME":"CBERS 4","OBJECT_ID":"2014-079A","EPOCH":"2026-03-03T03:51:33.926976","MEAN_MOTION":14.35410103,"ECCENTRICITY":8.09e-5,"INCLINATION":98.3503,"RA_OF_ASC_NODE":122.3829,"ARG_OF_PERICENTER":54.2828,"MEAN_ANOMALY":305.8433,"EPHEMERIS_TYPE":0,"CLASSIFICATION_TYPE":"U","NORAD_CAT_ID":40336,"ELEMENT_SET_NO":999,"REV_AT_EPOCH":58874,"BSTAR":2.0465e-6,"MEAN_MOTION_DOT":-3.6e-7,"MEAN_MOTION_DDOT":0},{"OBJECT_NAME":"SMAP","OBJECT_ID":"2015-003A","EPOCH":"2026-03-03T03:57:58.078656","MEAN_MOTION":14.63328625,"ECCENTRICITY":0.0001218,"INCLINATION":98.131,"RA_OF_ASC_NODE":70.7452,"ARG_OF_PERICENTER":112.8294,"MEAN_ANOMALY":247.3037,"EPHEMERIS_TYPE":0,"CLASSIFICATION_TYPE":"U","NORAD_CAT_ID":40376,"ELEMENT_SET_NO":999,"REV_AT_EPOCH":59211,"BSTAR":0.00013796,"MEAN_MOTION_DOT":6.65e-6,"MEAN_MOTION_DDOT":0},{"OBJECT_NAME":"GONETS-M 11","OBJECT_ID":"2015-020A","EPOCH":"2026-03-03T03:41:17.017152","MEAN_MOTION":12.42872582,"ECCENTRICITY":0.0015203,"INCLINATION":82.4817,"RA_OF_ASC_NODE":97.0709,"ARG_OF_PERICENTER":230.3032,"MEAN_ANOMALY":129.6708,"EPHEMERIS_TYPE":0,"CLASSIFICATION_TYPE":"U","NORAD_CAT_ID":40552,"ELEMENT_SET_NO":999,"REV_AT_EPOCH":49556,"BSTAR":0.00077962,"MEAN_MOTION_DOT":1.18e-6,"MEAN_MOTION_DDOT":0}]
